{"type":"FeatureCollection", "features": [
{"type":"Feature","geometry":{"type":"Point","coordinates":[29.9261,-18.9186]},"properties":{"name":"Zimbabwe","rank":3,"min_zoom":0}},
{"type":"Feature","geometry":{"type":"Point","coordinates":[26.7156,-14.7408]},"properties":{"name":"Zambia","rank":3,"min_zoom":0}},
{"type":"Feature","geometry":{"type":"Point","coordinates":[45.8803,15.3283]},"properties":{"name":"Yemen","rank":3,"min_zoom":0}},
{"type":"Feature","geometry":{"type":"Point","coordinates":[105.39,21.7241]},"properties":{"name":"Vietnam","rank":2,"min_zoom":0}},
{"type":"Feature","geometry":{"type":"Point","coordinates":[-64.6042,7.2264]},"properties":{"name":"Venezuela","rank":3,"min_zoom":0}},
{"type":"Feature","geometry":{"type":"Point","coordinates":[12.4339,41.9018]},"properties":{"name":"Vatican City","rank":6,"min_zoom":0}},
{"type":"Feature","geometry":{"type":"Point","coordinates":[166.9111,-15.368]},"properties":{"name":"Vanuatu","rank":4,"min_zoom":0}},
{"type":"Feature","geometry":{"type":"Point","coordinates":[63.978,41.7028]},"properties":{"name":"Uzbekistan","rank":3,"min_zoom":0}},
{"type":"Feature","geometry":{"type":"Point","coordinates":[-56.0181,-32.9355]},"properties":{"name":"Uruguay","rank":4,"min_zoom":0}},
{"type":"Feature","geometry":{"type":"Point","coordinates":[158.2396,6.8837]},"properties":{"name":"Federated States of Micronesia","rank":6,"min_zoom":0}},
{"type":"Feature","geometry":{"type":"Point","coordinates":[171.1687,7.0978]},"properties":{"name":"Marshall Islands","rank":6,"min_zoom":0}},
{"type":"Feature","geometry":{"type":"Point","coordinates":[145.7427,15.1826]},"properties":{"name":"Northern Mariana Islands","rank":6,"min_zoom":0}},
{"type":"Feature","geometry":{"type":"Point","coordinates":[-64.774,17.7485]},"properties":{"name":"United States Virgin Islands","rank":6,"min_zoom":0}},
{"type":"Feature","geometry":{"type":"Point","coordinates":[144.7193,13.4076]},"properties":{"name":"Guam","rank":6,"min_zoom":0}},
{"type":"Feature","geometry":{"type":"Point","coordinates":[-170.7391,-14.3182]},"properties":{"name":"American Samoa","rank":4,"min_zoom":0}},
{"type":"Feature","geometry":{"type":"Point","coordinates":[-66.4821,18.2302]},"properties":{"name":"Puerto Rico","rank":5,"min_zoom":0}},
{"type":"Feature","geometry":{"type":"Point","coordinates":[-97.1788,39.865]},"properties":{"name":"United States of America","rank":2,"min_zoom":0}},
{"type":"Feature","geometry":{"type":"Point","coordinates":[-36.5798,-54.3777]},"properties":{"name":"South Georgia and the South Sandwich Islands","rank":4,"min_zoom":0}},
{"type":"Feature","geometry":{"type":"Point","coordinates":[72.4133,-7.3156]},"properties":{"name":"British Indian Ocean Territory","rank":5,"min_zoom":0}},
{"type":"Feature","geometry":{"type":"Point","coordinates":[-5.712,-15.9598]},"properties":{"name":"Saint Helena","rank":6,"min_zoom":0}},
{"type":"Feature","geometry":{"type":"Point","coordinates":[-128.3176,-24.3631]},"properties":{"name":"Pitcairn Islands","rank":4,"min_zoom":0}},
{"type":"Feature","geometry":{"type":"Point","coordinates":[-63.065,18.225]},"properties":{"name":"Anguilla","rank":6,"min_zoom":0}},
{"type":"Feature","geometry":{"type":"Point","coordinates":[-58.7464,-51.6533]},"properties":{"name":"Falkland Islands","rank":5,"min_zoom":0}},
{"type":"Feature","geometry":{"type":"Point","coordinates":[-81.2697,19.3211]},"properties":{"name":"Cayman Islands","rank":5,"min_zoom":0}},
{"type":"Feature","geometry":{"type":"Point","coordinates":[-64.7369,32.3171]},"properties":{"name":"Bermuda","rank":6,"min_zoom":0}},
{"type":"Feature","geometry":{"type":"Point","coordinates":[-64.4066,18.4877]},"properties":{"name":"British Virgin Islands","rank":6,"min_zoom":0}},
{"type":"Feature","geometry":{"type":"Point","coordinates":[-71.743,21.8169]},"properties":{"name":"Turks and Caicos Islands","rank":6,"min_zoom":0}},
{"type":"Feature","geometry":{"type":"Point","coordinates":[-62.1859,16.7352]},"properties":{"name":"Montserrat","rank":6,"min_zoom":0}},
{"type":"Feature","geometry":{"type":"Point","coordinates":[-2.1269,49.2232]},"properties":{"name":"Jersey","rank":6,"min_zoom":0}},
{"type":"Feature","geometry":{"type":"Point","coordinates":[-2.5658,49.4655]},"properties":{"name":"Guernsey","rank":6,"min_zoom":0}},
{"type":"Feature","geometry":{"type":"Point","coordinates":[-4.5235,54.2283]},"properties":{"name":"Isle of Man","rank":6,"min_zoom":0}},
{"type":"Feature","geometry":{"type":"Point","coordinates":[-1.2632,52.4431]},"properties":{"name":"United Kingdom","rank":2,"min_zoom":0}},
{"type":"Feature","geometry":{"type":"Point","coordinates":[54.3449,23.4895]},"properties":{"name":"United Arab Emirates","rank":4,"min_zoom":0}},
{"type":"Feature","geometry":{"type":"Point","coordinates":[32.1435,49.74]},"properties":{"name":"Ukraine","rank":3,"min_zoom":0}},
{"type":"Feature","geometry":{"type":"Point","coordinates":[32.4207,0.8972]},"properties":{"name":"Uganda","rank":3,"min_zoom":0}},
{"type":"Feature","geometry":{"type":"Point","coordinates":[58.6769,39.868]},"properties":{"name":"Turkmenistan","rank":4,"min_zoom":0}},
{"type":"Feature","geometry":{"type":"Point","coordinates":[34.5018,39.3352]},"properties":{"name":"Turkey","rank":2,"min_zoom":0}},
{"type":"Feature","geometry":{"type":"Point","coordinates":[9.0121,33.6918]},"properties":{"name":"Tunisia","rank":3,"min_zoom":0}},
{"type":"Feature","geometry":{"type":"Point","coordinates":[-61.2518,10.3932]},"properties":{"name":"Trinidad and Tobago","rank":5,"min_zoom":0}},
{"type":"Feature","geometry":{"type":"Point","coordinates":[-175.2387,-21.1617]},"properties":{"name":"Tonga","rank":4,"min_zoom":0}},
{"type":"Feature","geometry":{"type":"Point","coordinates":[1.0542,8.8258]},"properties":{"name":"Togo","rank":6,"min_zoom":0}},
{"type":"Feature","geometry":{"type":"Point","coordinates":[125.8418,-8.8102]},"properties":{"name":"East Timor","rank":5,"min_zoom":0}},
{"type":"Feature","geometry":{"type":"Point","coordinates":[100.9437,15.5012]},"properties":{"name":"Thailand","rank":3,"min_zoom":0}},
{"type":"Feature","geometry":{"type":"Point","coordinates":[34.7995,-5.8755]},"properties":{"name":"Tanzania","rank":3,"min_zoom":0}},
{"type":"Feature","geometry":{"type":"Point","coordinates":[72.5729,38.1971]},"properties":{"name":"Tajikistan","rank":4,"min_zoom":0}},
{"type":"Feature","geometry":{"type":"Point","coordinates":[120.8987,23.7226]},"properties":{"name":"Taiwan","rank":3,"min_zoom":0}},
{"type":"Feature","geometry":{"type":"Point","coordinates":[38.2797,35.0039]},"properties":{"name":"Syria","rank":3,"min_zoom":0}},
{"type":"Feature","geometry":{"type":"Point","coordinates":[7.4612,46.7245]},"properties":{"name":"Switzerland","rank":4,"min_zoom":0}},
{"type":"Feature","geometry":{"type":"Point","coordinates":[16.2884,64.1928]},"properties":{"name":"Sweden","rank":3,"min_zoom":0}},
{"type":"Feature","geometry":{"type":"Point","coordinates":[31.4693,-26.5355]},"properties":{"name":"Eswatini","rank":4,"min_zoom":0}},
{"type":"Feature","geometry":{"type":"Point","coordinates":[-55.9514,4.1553]},"properties":{"name":"Suriname","rank":4,"min_zoom":0}},
{"type":"Feature","geometry":{"type":"Point","coordinates":[30.3314,7.2405]},"properties":{"name":"South Sudan","rank":3,"min_zoom":0}},
{"type":"Feature","geometry":{"type":"Point","coordinates":[29.2625,16.3374]},"properties":{"name":"Sudan","rank":3,"min_zoom":0}},
{"type":"Feature","geometry":{"type":"Point","coordinates":[80.7031,7.576]},"properties":{"name":"Sri Lanka","rank":3,"min_zoom":0}},
{"type":"Feature","geometry":{"type":"Point","coordinates":[-3.4698,40.0934]},"properties":{"name":"Spain","rank":2,"min_zoom":0}},
{"type":"Feature","geometry":{"type":"Point","coordinates":[128.1297,36.3984]},"properties":{"name":"South Korea","rank":2,"min_zoom":0}},
{"type":"Feature","geometry":{"type":"Point","coordinates":[23.235,-30.0427]},"properties":{"name":"South Africa","rank":2,"min_zoom":0}},
{"type":"Feature","geometry":{"type":"Point","coordinates":[44.3244,3.3953]},"properties":{"name":"Somalia","rank":6,"min_zoom":0}},
{"type":"Feature","geometry":{"type":"Point","coordinates":[46.2525,9.5154]},"properties":{"name":"Somaliland","rank":5,"min_zoom":4}},
{"type":"Feature","geometry":{"type":"Point","coordinates":[159.1854,-8.0357]},"properties":{"name":"Solomon Islands","rank":3,"min_zoom":0}},
{"type":"Feature","geometry":{"type":"Point","coordinates":[19.0491,48.7286]},"properties":{"name":"Slovakia","rank":6,"min_zoom":0}},
{"type":"Feature","geometry":{"type":"Point","coordinates":[14.9113,46.0512]},"properties":{"name":"Slovenia","rank":6,"min_zoom":0}},
{"type":"Feature","geometry":{"type":"Point","coordinates":[103.8173,1.3566]},"properties":{"name":"Singapore","rank":6,"min_zoom":0}},
{"type":"Feature","geometry":{"type":"Point","coordinates":[-11.7631,8.6168]},"properties":{"name":"Sierra Leone","rank":4,"min_zoom":0}},
{"type":"Feature","geometry":{"type":"Point","coordinates":[55.444,-4.618]},"properties":{"name":"Seychelles","rank":6,"min_zoom":0}},
{"type":"Feature","geometry":{"type":"Point","coordinates":[20.5856,44.2505]},"properties":{"name":"Serbia","rank":5,"min_zoom":0}},
{"type":"Feature","geometry":{"type":"Point","coordinates":[-14.8404,15.1881]},"properties":{"name":"Senegal","rank":3,"min_zoom":0}},
{"type":"Feature","geometry":{"type":"Point","coordinates":[44.6994,23.791]},"properties":{"name":"Saudi Arabia","rank":2,"min_zoom":0}},
{"type":"Feature","geometry":{"type":"Point","coordinates":[6.6045,0.2472]},"properties":{"name":"São Tomé and Príncipe","rank":6,"min_zoom":0}},
{"type":"Feature","geometry":{"type":"Point","coordinates":[12.4603,43.9415]},"properties":{"name":"San Marino","rank":6,"min_zoom":0}},
{"type":"Feature","geometry":{"type":"Point","coordinates":[-172.4374,-13.634]},"properties":{"name":"Samoa","rank":4,"min_zoom":0}},
{"type":"Feature","geometry":{"type":"Point","coordinates":[-61.201,13.2512]},"properties":{"name":"Saint Vincent and the Grenadines","rank":6,"min_zoom":0}},
{"type":"Feature","geometry":{"type":"Point","coordinates":[-60.9772,13.8889]},"properties":{"name":"Saint Lucia","rank":6,"min_zoom":0}},
{"type":"Feature","geometry":{"type":"Point","coordinates":[-62.7548,17.3334]},"properties":{"name":"Saint Kitts and Nevis","rank":6,"min_zoom":0}},
{"type":"Feature","geometry":{"type":"Point","coordinates":[29.9887,-1.8972]},"properties":{"name":"Rwanda","rank":3,"min_zoom":0}},
{"type":"Feature","geometry":{"type":"Point","coordinates":[93.8293,63.2146]},"properties":{"name":"Russia","rank":2,"min_zoom":0}},
{"type":"Feature","geometry":{"type":"Point","coordinates":[25.0636,45.722]},"properties":{"name":"Romania","rank":3,"min_zoom":0}},
{"type":"Feature","geometry":{"type":"Point","coordinates":[51.1502,25.2911]},"properties":{"name":"Qatar","rank":5,"min_zoom":0}},
{"type":"Feature","geometry":{"type":"Point","coordinates":[-7.9777,40.3271]},"properties":{"name":"Portugal","rank":2,"min_zoom":0}},
{"type":"Feature","geometry":{"type":"Point","coordinates":[19.4845,51.9904]},"properties":{"name":"Poland","rank":3,"min_zoom":0}},
{"type":"Feature","geometry":{"type":"Point","coordinates":[121.3832,16.9774]},"properties":{"name":"Philippines","rank":2,"min_zoom":0}},
{"type":"Feature","geometry":{"type":"Point","coordinates":[-72.8987,-12.9819]},"properties":{"name":"Peru","rank":2,"min_zoom":0}},
{"type":"Feature","geometry":{"type":"Point","coordinates":[-60.1477,-21.6684]},"properties":{"name":"Paraguay","rank":4,"min_zoom":0}},
{"type":"Feature","geometry":{"type":"Point","coordinates":[143.9021,-5.6835]},"properties":{"name":"Papua New Guinea","rank":2,"min_zoom":0}},
{"type":"Feature","geometry":{"type":"Point","coordinates":[-80.3095,8.726]},"properties":{"name":"Panama","rank":4,"min_zoom":0}},
{"type":"Feature","geometry":{"type":"Point","coordinates":[134.5753,7.5136]},"properties":{"name":"Palau","rank":6,"min_zoom":0}},
{"type":"Feature","geometry":{"type":"Point","coordinates":[68.5391,29.3515]},"properties":{"name":"Pakistan","rank":2,"min_zoom":0}},
{"type":"Feature","geometry":{"type":"Point","coordinates":[57.3357,22.1226]},"properties":{"name":"Oman","rank":4,"min_zoom":0}},
{"type":"Feature","geometry":{"type":"Point","coordinates":[9.7766,61.2939]},"properties":{"name":"Norway","rank":3,"min_zoom":0}},
{"type":"Feature","geometry":{"type":"Point","coordinates":[126.4523,39.8795]},"properties":{"name":"North Korea","rank":3,"min_zoom":0}},
{"type":"Feature","geometry":{"type":"Point","coordinates":[7.5014,9.4417]},"properties":{"name":"Nigeria","rank":2,"min_zoom":0}},
{"type":"Feature","geometry":{"type":"Point","coordinates":[9.5074,17.4404]},"properties":{"name":"Niger","rank":3,"min_zoom":0}},
{"type":"Feature","geometry":{"type":"Point","coordinates":[-85.0636,12.6882]},"properties":{"name":"Nicaragua","rank":5,"min_zoom":0}},
{"type":"Feature","geometry":{"type":"Point","coordinates":[169.2787,-45.1764]},"properties":{"name":"New Zealand","rank":2,"min_zoom":0}},
{"type":"Feature","geometry":{"type":"Point","coordinates":[-169.8685,-19.0496]},"properties":{"name":"Niue","rank":4,"min_zoom":0}},
{"type":"Feature","geometry":{"type":"Point","coordinates":[-159.7862,-21.2173]},"properties":{"name":"Cook Islands","rank":4,"min_zoom":0}},
{"type":"Feature","geometry":{"type":"Point","coordinates":[5.6128,52.4161]},"properties":{"name":"Netherlands","rank":5,"min_zoom":0}},
{"type":"Feature","geometry":{"type":"Point","coordinates":[-69.9911,12.5342]},"properties":{"name":"Aruba","rank":5,"min_zoom":0}},
{"type":"Feature","geometry":{"type":"Point","coordinates":[-68.9712,12.1724]},"properties":{"name":"Curaçao","rank":5,"min_zoom":0}},
{"type":"Feature","geometry":{"type":"Point","coordinates":[83.58,28.3173]},"properties":{"name":"Nepal","rank":3,"min_zoom":0}},
{"type":"Feature","geometry":{"type":"Point","coordinates":[166.9321,-0.5178]},"properties":{"name":"Nauru","rank":6,"min_zoom":0}},
{"type":"Feature","geometry":{"type":"Point","coordinates":[17.1074,-20.5821]},"properties":{"name":"Namibia","rank":3,"min_zoom":0}},
{"type":"Feature","geometry":{"type":"Point","coordinates":[37.8299,-13.9564]},"properties":{"name":"Mozambique","rank":3,"min_zoom":0}},
{"type":"Feature","geometry":{"type":"Point","coordinates":[-7.2544,31.662]},"properties":{"name":"Morocco","rank":3,"min_zoom":0}},
{"type":"Feature","geometry":{"type":"Point","coordinates":[-12.6239,23.9705]},"properties":{"name":"Western Sahara","rank":7,"min_zoom":4.7}},
{"type":"Feature","geometry":{"type":"Point","coordinates":[19.2243,42.8621]},"properties":{"name":"Montenegro","rank":6,"min_zoom":0}},
{"type":"Feature","geometry":{"type":"Point","coordinates":[104.1463,45.9987]},"properties":{"name":"Mongolia","rank":3,"min_zoom":0}},
{"type":"Feature","geometry":{"type":"Point","coordinates":[28.4829,47.4626]},"properties":{"name":"Moldova","rank":6,"min_zoom":0}},
{"type":"Feature","geometry":{"type":"Point","coordinates":[7.4058,43.7544]},"properties":{"name":"Monaco","rank":6,"min_zoom":0}},
{"type":"Feature","geometry":{"type":"Point","coordinates":[-102.2794,23.9059]},"properties":{"name":"Mexico","rank":2,"min_zoom":0}},
{"type":"Feature","geometry":{"type":"Point","coordinates":[57.5667,-20.2955]},"properties":{"name":"Mauritius","rank":5,"min_zoom":0}},
{"type":"Feature","geometry":{"type":"Point","coordinates":[-9.7439,19.5882]},"properties":{"name":"Mauritania","rank":3,"min_zoom":0}},
{"type":"Feature","geometry":{"type":"Point","coordinates":[14.4359,35.891]},"properties":{"name":"Malta","rank":5,"min_zoom":0}},
{"type":"Feature","geometry":{"type":"Point","coordinates":[-2.0423,18.7025]},"properties":{"name":"Mali","rank":3,"min_zoom":0}},
{"type":"Feature","geometry":{"type":"Point","coordinates":[73.5038,4.1943]},"properties":{"name":"Maldives","rank":5,"min_zoom":0}},
{"type":"Feature","geometry":{"type":"Point","coordinates":[113.8396,2.5444]},"properties":{"name":"Malaysia","rank":3,"min_zoom":0}},
{"type":"Feature","geometry":{"type":"Point","coordinates":[33.6471,-13.3806]},"properties":{"name":"Malawi","rank":6,"min_zoom":0}},
{"type":"Feature","geometry":{"type":"Point","coordinates":[46.7035,-18.6155]},"properties":{"name":"Madagascar","rank":3,"min_zoom":0}},
{"type":"Feature","geometry":{"type":"Point","coordinates":[21.5543,41.561]},"properties":{"name":"North Macedonia","rank":6,"min_zoom":0}},
{"type":"Feature","geometry":{"type":"Point","coordinates":[6.0645,49.7599]},"properties":{"name":"Luxembourg","rank":6,"min_zoom":0}},
{"type":"Feature","geometry":{"type":"Point","coordinates":[24.0863,55.1081]},"properties":{"name":"Lithuania","rank":5,"min_zoom":0}},
{"type":"Feature","geometry":{"type":"Point","coordinates":[9.5357,47.1168]},"properties":{"name":"Liechtenstein","rank":6,"min_zoom":0}},
{"type":"Feature","geometry":{"type":"Point","coordinates":[18.0104,26.6486]},"properties":{"name":"Libya","rank":3,"min_zoom":0}},
{"type":"Feature","geometry":{"type":"Point","coordinates":[-9.4626,6.4998]},"properties":{"name":"Liberia","rank":4,"min_zoom":0}},
{"type":"Feature","geometry":{"type":"Point","coordinates":[28.2449,-29.5061]},"properties":{"name":"Lesotho","rank":6,"min_zoom":0}},
{"type":"Feature","geometry":{"type":"Point","coordinates":[36.0145,34.1709]},"properties":{"name":"Lebanon","rank":5,"min_zoom":0}},
{"type":"Feature","geometry":{"type":"Point","coordinates":[25.4566,57.0687]},"properties":{"name":"Latvia","rank":5,"min_zoom":0}},
{"type":"Feature","geometry":{"type":"Point","coordinates":[102.5449,19.605]},"properties":{"name":"Laos","rank":4,"min_zoom":0}},
{"type":"Feature","geometry":{"type":"Point","coordinates":[74.4496,41.6505]},"properties":{"name":"Kyrgyzstan","rank":4,"min_zoom":0}},
{"type":"Feature","geometry":{"type":"Point","coordinates":[47.3229,29.4531]},"properties":{"name":"Kuwait","rank":6,"min_zoom":0}},
{"type":"Feature","geometry":{"type":"Point","coordinates":[20.8594,42.594]},"properties":{"name":"Kosovo","rank":6,"min_zoom":0}},
{"type":"Feature","geometry":{"type":"Point","coordinates":[-157.3879,1.8359]},"properties":{"name":"Kiribati","rank":6,"min_zoom":0}},
{"type":"Feature","geometry":{"type":"Point","coordinates":[37.8716,0.4894]},"properties":{"name":"Kenya","rank":2,"min_zoom":0}},
{"type":"Feature","geometry":{"type":"Point","coordinates":[68.9884,48.298]},"properties":{"name":"Kazakhstan","rank":3,"min_zoom":0}},
{"type":"Feature","geometry":{"type":"Point","coordinates":[36.4426,30.7231]},"properties":{"name":"Jordan","rank":4,"min_zoom":0}},
{"type":"Feature","geometry":{"type":"Point","coordinates":[138.4523,36.1262]},"properties":{"name":"Japan","rank":2,"min_zoom":0}},
{"type":"Feature","geometry":{"type":"Point","coordinates":[-77.331,18.1388]},"properties":{"name":"Jamaica","rank":4,"min_zoom":0}},
{"type":"Feature","geometry":{"type":"Point","coordinates":[11.0664,44.7436]},"properties":{"name":"Italy","rank":2,"min_zoom":0}},
{"type":"Feature","geometry":{"type":"Point","coordinates":[34.8458,30.9176]},"properties":{"name":"Israel","rank":4,"min_zoom":0}},
{"type":"Feature","geometry":{"type":"Point","coordinates":[35.2531,32.0644]},"properties":{"name":"Palestine","rank":5,"min_zoom":7}},
{"type":"Feature","geometry":{"type":"Point","coordinates":[-7.8034,53.0806]},"properties":{"name":"Ireland","rank":3,"min_zoom":0}},
{"type":"Feature","geometry":{"type":"Point","coordinates":[43.2611,33.102]},"properties":{"name":"Iraq","rank":3,"min_zoom":0}},
{"type":"Feature","geometry":{"type":"Point","coordinates":[54.9291,32.1812]},"properties":{"name":"Iran","rank":2,"min_zoom":0}},
{"type":"Feature","geometry":{"type":"Point","coordinates":[102.0516,-1.0787]},"properties":{"name":"Indonesia","rank":2,"min_zoom":0}},
{"type":"Feature","geometry":{"type":"Point","coordinates":[79.3649,22.6545]},"properties":{"name":"India","rank":2,"min_zoom":0}},
{"type":"Feature","geometry":{"type":"Point","coordinates":[-18.6599,64.758]},"properties":{"name":"Iceland","rank":3,"min_zoom":0}},
{"type":"Feature","geometry":{"type":"Point","coordinates":[19.4468,47.094]},"properties":{"name":"Hungary","rank":5,"min_zoom":0}},
{"type":"Feature","geometry":{"type":"Point","coordinates":[-86.9212,14.7691]},"properties":{"name":"Honduras","rank":5,"min_zoom":0}},
{"type":"Feature","geometry":{"type":"Point","coordinates":[-72.2246,19.2433]},"properties":{"name":"Haiti","rank":5,"min_zoom":0}},
{"type":"Feature","geometry":{"type":"Point","coordinates":[-58.9442,5.121]},"properties":{"name":"Guyana","rank":4,"min_zoom":0}},
{"type":"Feature","geometry":{"type":"Point","coordinates":[-14.567,12.1]},"properties":{"name":"Guinea-Bissau","rank":6,"min_zoom":0}},
{"type":"Feature","geometry":{"type":"Point","coordinates":[-9.9636,10.6168]},"properties":{"name":"Guinea","rank":3,"min_zoom":0}},
{"type":"Feature","geometry":{"type":"Point","coordinates":[-90.5011,14.9887]},"properties":{"name":"Guatemala","rank":3,"min_zoom":0}},
{"type":"Feature","geometry":{"type":"Point","coordinates":[-61.6805,12.1135]},"properties":{"name":"Grenada","rank":6,"min_zoom":0}},
{"type":"Feature","geometry":{"type":"Point","coordinates":[21.7063,39.7885]},"properties":{"name":"Greece","rank":3,"min_zoom":0}},
{"type":"Feature","geometry":{"type":"Point","coordinates":[-1.0375,7.7185]},"properties":{"name":"Ghana","rank":3,"min_zoom":0}},
{"type":"Feature","geometry":{"type":"Point","coordinates":[9.6809,50.9689]},"properties":{"name":"Germany","rank":2,"min_zoom":0}},
{"type":"Feature","geometry":{"type":"Point","coordinates":[43.7857,41.8614]},"properties":{"name":"Georgia","rank":5,"min_zoom":0}},
{"type":"Feature","geometry":{"type":"Point","coordinates":[-15.0213,13.6584]},"properties":{"name":"The Gambia","rank":6,"min_zoom":0}},
{"type":"Feature","geometry":{"type":"Point","coordinates":[11.7469,-0.5729]},"properties":{"name":"Gabon","rank":4,"min_zoom":0}},
{"type":"Feature","geometry":{"type":"Point","coordinates":[2.4544,46.7218]},"properties":{"name":"France","rank":2,"min_zoom":0}},
{"type":"Feature","geometry":{"type":"Point","coordinates":[-56.326,47.0368]},"properties":{"name":"Saint Pierre and Miquelon","rank":4,"min_zoom":0}},
{"type":"Feature","geometry":{"type":"Point","coordinates":[-178.141,-14.2869]},"properties":{"name":"Wallis and Futuna","rank":4,"min_zoom":0}},
{"type":"Feature","geometry":{"type":"Point","coordinates":[-63.0586,18.092]},"properties":{"name":"Saint Martin","rank":6,"min_zoom":0}},
{"type":"Feature","geometry":{"type":"Point","coordinates":[-62.8413,17.8952]},"properties":{"name":"Saint Barthélemy","rank":6,"min_zoom":0}},
{"type":"Feature","geometry":{"type":"Point","coordinates":[-149.4569,-17.6279]},"properties":{"name":"French Polynesia","rank":4,"min_zoom":0}},
{"type":"Feature","geometry":{"type":"Point","coordinates":[165.1383,-21.0946]},"properties":{"name":"New Caledonia","rank":3,"min_zoom":0}},
{"type":"Feature","geometry":{"type":"Point","coordinates":[69.2113,-49.3237]},"properties":{"name":"French Southern and Antarctic Lands","rank":6,"min_zoom":0}},
{"type":"Feature","geometry":{"type":"Point","coordinates":[19.9685,60.2489]},"properties":{"name":"Åland","rank":6,"min_zoom":0}},
{"type":"Feature","geometry":{"type":"Point","coordinates":[27.2765,63.2537]},"properties":{"name":"Finland","rank":3,"min_zoom":0}},
{"type":"Feature","geometry":{"type":"Point","coordinates":[177.9728,-17.8236]},"properties":{"name":"Fiji","rank":6,"min_zoom":0}},
{"type":"Feature","geometry":{"type":"Point","coordinates":[38.8645,8.0052]},"properties":{"name":"Ethiopia","rank":2,"min_zoom":0}},
{"type":"Feature","geometry":{"type":"Point","coordinates":[25.8316,58.7464]},"properties":{"name":"Estonia","rank":6,"min_zoom":0}},
{"type":"Feature","geometry":{"type":"Point","coordinates":[38.2799,15.7984]},"properties":{"name":"Eritrea","rank":4,"min_zoom":0}},
{"type":"Feature","geometry":{"type":"Point","coordinates":[10.4705,1.5851]},"properties":{"name":"Equatorial Guinea","rank":4,"min_zoom":0}},
{"type":"Feature","geometry":{"type":"Point","coordinates":[-88.8536,13.7088]},"properties":{"name":"El Salvador","rank":6,"min_zoom":0}},
{"type":"Feature","geometry":{"type":"Point","coordinates":[29.2547,26.4278]},"properties":{"name":"Egypt","rank":2,"min_zoom":0}},
{"type":"Feature","geometry":{"type":"Point","coordinates":[-78.194,-1.254]},"properties":{"name":"Ecuador","rank":3,"min_zoom":0}},
{"type":"Feature","geometry":{"type":"Point","coordinates":[-70.5333,19.0126]},"properties":{"name":"Dominican Republic","rank":5,"min_zoom":0}},
{"type":"Feature","geometry":{"type":"Point","coordinates":[-61.3484,15.4471]},"properties":{"name":"Dominica","rank":6,"min_zoom":0}},
{"type":"Feature","geometry":{"type":"Point","coordinates":[42.4941,11.9683]},"properties":{"name":"Djibouti","rank":5,"min_zoom":0}},
{"type":"Feature","geometry":{"type":"Point","coordinates":[-40.8722,74.1639]},"properties":{"name":"Greenland","rank":3,"min_zoom":0}},
{"type":"Feature","geometry":{"type":"Point","coordinates":[-6.9339,62.1907]},"properties":{"name":"Faroe Islands","rank":6,"min_zoom":0}},
{"type":"Feature","geometry":{"type":"Point","coordinates":[9.3559,56.1113]},"properties":{"name":"Denmark","rank":4,"min_zoom":0}},
{"type":"Feature","geometry":{"type":"Point","coordinates":[15.3774,49.8824]},"properties":{"name":"Czech Republic","rank":5,"min_zoom":0}},
{"type":"Feature","geometry":{"type":"Point","coordinates":[33.6593,35.1934]},"properties":{"name":"Turkish Republic of Northern Cyprus","rank":6,"min_zoom":0}},
{"type":"Feature","geometry":{"type":"Point","coordinates":[33.0656,34.9092]},"properties":{"name":"Cyprus","rank":5,"min_zoom":0}},
{"type":"Feature","geometry":{"type":"Point","coordinates":[-77.9615,21.3404]},"properties":{"name":"Cuba","rank":3,"min_zoom":0}},
{"type":"Feature","geometry":{"type":"Point","coordinates":[16.3807,45.8]},"properties":{"name":"Croatia","rank":6,"min_zoom":0}},
{"type":"Feature","geometry":{"type":"Point","coordinates":[-5.5122,7.5759]},"properties":{"name":"Ivory Coast","rank":3,"min_zoom":0}},
{"type":"Feature","geometry":{"type":"Point","coordinates":[-84.0777,10.0661]},"properties":{"name":"Costa Rica","rank":5,"min_zoom":0}},
{"type":"Feature","geometry":{"type":"Point","coordinates":[23.5013,-2.2739]},"properties":{"name":"Democratic Republic of the Congo","rank":2,"min_zoom":0}},
{"type":"Feature","geometry":{"type":"Point","coordinates":[15.8998,-0.0232]},"properties":{"name":"Republic of the Congo","rank":4,"min_zoom":0}},
{"type":"Feature","geometry":{"type":"Point","coordinates":[43.3191,-11.6881]},"properties":{"name":"Comoros","rank":6,"min_zoom":0}},
{"type":"Feature","geometry":{"type":"Point","coordinates":[-73.1734,3.3712]},"properties":{"name":"Colombia","rank":2,"min_zoom":0}},
{"type":"Feature","geometry":{"type":"Point","coordinates":[106.3335,32.4562]},"properties":{"name":"People's Republic of China","rank":2,"min_zoom":0}},
{"type":"Feature","geometry":{"type":"Point","coordinates":[113.5088,22.2247]},"properties":{"name":"Macau","rank":4,"min_zoom":0}},
{"type":"Feature","geometry":{"type":"Point","coordinates":[114.1541,22.4536]},"properties":{"name":"Hong Kong","rank":4,"min_zoom":0}},
{"type":"Feature","geometry":{"type":"Point","coordinates":[-72.3258,-37.9635]},"properties":{"name":"Chile","rank":2,"min_zoom":0}},
{"type":"Feature","geometry":{"type":"Point","coordinates":[18.7442,15.162]},"properties":{"name":"Chad","rank":3,"min_zoom":0}},
{"type":"Feature","geometry":{"type":"Point","coordinates":[20.9052,6.9837]},"properties":{"name":"Central African Republic","rank":4,"min_zoom":0}},
{"type":"Feature","geometry":{"type":"Point","coordinates":[-23.6346,15.0594]},"properties":{"name":"Cape Verde","rank":4,"min_zoom":0}},
{"type":"Feature","geometry":{"type":"Point","coordinates":[-112.407,58.3421]},"properties":{"name":"Canada","rank":2,"min_zoom":0}},
{"type":"Feature","geometry":{"type":"Point","coordinates":[12.4799,4.5799]},"properties":{"name":"Cameroon","rank":3,"min_zoom":0}},
{"type":"Feature","geometry":{"type":"Point","coordinates":[104.4674,12.6399]},"properties":{"name":"Cambodia","rank":3,"min_zoom":0}},
{"type":"Feature","geometry":{"type":"Point","coordinates":[96.0494,21.5388]},"properties":{"name":"Myanmar","rank":3,"min_zoom":0}},
{"type":"Feature","geometry":{"type":"Point","coordinates":[29.8615,-3.3771]},"properties":{"name":"Burundi","rank":6,"min_zoom":0}},
{"type":"Feature","geometry":{"type":"Point","coordinates":[-1.1558,12.7113]},"properties":{"name":"Burkina Faso","rank":3,"min_zoom":0}},
{"type":"Feature","geometry":{"type":"Point","coordinates":[25.156,42.4944]},"properties":{"name":"Bulgaria","rank":4,"min_zoom":0}},
{"type":"Feature","geometry":{"type":"Point","coordinates":[114.5584,4.4661]},"properties":{"name":"Brunei","rank":6,"min_zoom":0}},
{"type":"Feature","geometry":{"type":"Point","coordinates":[-49.5674,-12.2991]},"properties":{"name":"Brazil","rank":2,"min_zoom":0}},
{"type":"Feature","geometry":{"type":"Point","coordinates":[24.1755,-22.1109]},"properties":{"name":"Botswana","rank":4,"min_zoom":0}},
{"type":"Feature","geometry":{"type":"Point","coordinates":[18.0895,44.0946]},"properties":{"name":"Bosnia and Herzegovina","rank":5,"min_zoom":0}},
{"type":"Feature","geometry":{"type":"Point","coordinates":[-64.6866,-16.6221]},"properties":{"name":"Bolivia","rank":3,"min_zoom":0}},
{"type":"Feature","geometry":{"type":"Point","coordinates":[90.3701,27.4799]},"properties":{"name":"Bhutan","rank":5,"min_zoom":0}},
{"type":"Feature","geometry":{"type":"Point","coordinates":[2.4324,10.4064]},"properties":{"name":"Benin","rank":5,"min_zoom":0}},
{"type":"Feature","geometry":{"type":"Point","coordinates":[-88.727,17.2034]},"properties":{"name":"Belize","rank":6,"min_zoom":0}},
{"type":"Feature","geometry":{"type":"Point","coordinates":[4.6684,50.7362]},"properties":{"name":"Belgium","rank":2,"min_zoom":0}},
{"type":"Feature","geometry":{"type":"Point","coordinates":[28.4177,53.826]},"properties":{"name":"Belarus","rank":4,"min_zoom":0}},
{"type":"Feature","geometry":{"type":"Point","coordinates":[-59.5689,13.1773]},"properties":{"name":"Barbados","rank":5,"min_zoom":0}},
{"type":"Feature","geometry":{"type":"Point","coordinates":[89.8395,24.3055]},"properties":{"name":"Bangladesh","rank":3,"min_zoom":0}},
{"type":"Feature","geometry":{"type":"Point","coordinates":[50.5486,26.0177]},"properties":{"name":"Bahrain","rank":4,"min_zoom":0}},
{"type":"Feature","geometry":{"type":"Point","coordinates":[-77.1351,26.3798]},"properties":{"name":"The Bahamas","rank":4,"min_zoom":0}},
{"type":"Feature","geometry":{"type":"Point","coordinates":[47.2165,40.3919]},"properties":{"name":"Azerbaijan","rank":5,"min_zoom":0}},
{"type":"Feature","geometry":{"type":"Point","coordinates":[14.1276,47.5238]},"properties":{"name":"Austria","rank":4,"min_zoom":0}},
{"type":"Feature","geometry":{"type":"Point","coordinates":[134.0519,-24.0034]},"properties":{"name":"Australia","rank":2,"min_zoom":0}},
{"type":"Feature","geometry":{"type":"Point","coordinates":[105.6672,-10.4927]},"properties":{"name":"Australian Indian Ocean Territories","rank":5,"min_zoom":0}},
{"type":"Feature","geometry":{"type":"Point","coordinates":[73.5161,-53.1009]},"properties":{"name":"Heard Island and McDonald Islands","rank":5,"min_zoom":0}},
{"type":"Feature","geometry":{"type":"Point","coordinates":[167.9486,-29.0496]},"properties":{"name":"Norfolk Island","rank":5,"min_zoom":0}},
{"type":"Feature","geometry":{"type":"Point","coordinates":[123.5838,-12.4299]},"properties":{"name":"Ashmore and Cartier Islands","rank":5,"min_zoom":0}},
{"type":"Feature","geometry":{"type":"Point","coordinates":[44.7984,40.4596]},"properties":{"name":"Armenia","rank":6,"min_zoom":0}},
{"type":"Feature","geometry":{"type":"Point","coordinates":[-64.1784,-33.5168]},"properties":{"name":"Argentina","rank":2,"min_zoom":0}},
{"type":"Feature","geometry":{"type":"Point","coordinates":[-61.7915,17.0766]},"properties":{"name":"Antigua and Barbuda","rank":6,"min_zoom":0}},
{"type":"Feature","geometry":{"type":"Point","coordinates":[17.9836,-12.1813]},"properties":{"name":"Angola","rank":3,"min_zoom":0}},
{"type":"Feature","geometry":{"type":"Point","coordinates":[1.5574,42.5422]},"properties":{"name":"Andorra","rank":6,"min_zoom":0}},
{"type":"Feature","geometry":{"type":"Point","coordinates":[3.3228,27.9042]},"properties":{"name":"Algeria","rank":3,"min_zoom":0}},
{"type":"Feature","geometry":{"type":"Point","coordinates":[20.0631,40.6822]},"properties":{"name":"Albania","rank":6,"min_zoom":0}},
{"type":"Feature","geometry":{"type":"Point","coordinates":[66.4939,34.1536]},"properties":{"name":"Afghanistan","rank":3,"min_zoom":0}},
{"type":"Feature","geometry":{"type":"Point","coordinates":[77.1293,35.3475]},"properties":{"name":"Siachen Glacier","rank":5,"min_zoom":5}},
{"type":"Feature","geometry":{"type":"Point","coordinates":[48.0511,-78.8331]},"properties":{"name":"Antarctica","rank":4,"min_zoom":0}},
{"type":"Feature","geometry":{"type":"Point","coordinates":[-63.0561,18.0495]},"properties":{"name":"Sint Maarten","rank":6,"min_zoom":0}},
{"type":"Feature","geometry":{"type":"Point","coordinates":[179.2071,-8.5036]},"properties":{"name":"Tuvalu","rank":6,"min_zoom":0}}
]}