{"type":"FeatureCollection", "features": [
{"type":"Feature","geometry":{"type":"Point","coordinates":[21.6866,85.0689]},"properties":{"name":"Arctic Ocean","scalerank":0,"featurecla":"ocean"}},
{"type":"Feature","geometry":{"type":"Point","coordinates":[-18.4472,-65.8917]},"properties":{"name":"Southern Ocean","scalerank":0,"featurecla":"ocean"}},
{"type":"Feature","geometry":{"type":"Point","coordinates":[-30.7271,39.9344]},"properties":{"name":"Atlantic Ocean","scalerank":0,"featurecla":"ocean"}},
{"type":"Feature","geometry":{"type":"Point","coordinates":[-136.4706,24.5054]},"properties":{"name":"Pacific Ocean","scalerank":0,"featurecla":"ocean"}},
{"type":"Feature","geometry":{"type":"Point","coordinates":[-126.8218,-30.1368]},"properties":{"name":"Pacific Ocean","scalerank":0,"featurecla":"ocean"}},
{"type":"Feature","geometry":{"type":"Point","coordinates":[83.424,-26.7458]},"properties":{"name":"Indian Ocean","scalerank":0,"featurecla":"ocean"}},
{"type":"Feature","geometry":{"type":"Point","coordinates":[-18.3108,-34.3113]},"properties":{"name":"Atlantic Ocean","scalerank":0,"featurecla":"ocean"}},
{"type":"Feature","geometry":{"type":"Point","coordinates":[31.2917,43.5468]},"properties":{"name":"Black Sea","scalerank":1,"featurecla":"sea"}},
{"type":"Feature","geometry":{"type":"Point","coordinates":[133.4808,17.2628]},"properties":{"name":"Philippine Sea","scalerank":1,"featurecla":"sea"}},
{"type":"Feature","geometry":{"type":"Point","coordinates":[160.6818,-40.3584]},"properties":{"name":"Tasman Sea","scalerank":1,"featurecla":"sea"}},
{"type":"Feature","geometry":{"type":"Point","coordinates":[114.7034,13.7807]},"properties":{"name":"South China Sea","scalerank":1,"featurecla":"sea"}},
{"type":"Feature","geometry":{"type":"Point","coordinates":[63.6746,13.6922]},"properties":{"name":"Arabian Sea","scalerank":1,"featurecla":"sea"}},
{"type":"Feature","geometry":{"type":"Point","coordinates":[-136.3877,71.9969]},"properties":{"name":"Beaufort Sea","scalerank":1,"featurecla":"sea"}},
{"type":"Feature","geometry":{"type":"Point","coordinates":[-78.2351,13.7543]},"properties":{"name":"Caribbean Sea","scalerank":1,"featurecla":"sea"}},
{"type":"Feature","geometry":{"type":"Point","coordinates":[-90.0527,25.3191]},"properties":{"name":"Gulf of Mexico","scalerank":1,"featurecla":"gulf"}},
{"type":"Feature","geometry":{"type":"Point","coordinates":[-52.6019,55.9791]},"properties":{"name":"Labrador Sea","scalerank":1,"featurecla":"sea"}},
{"type":"Feature","geometry":{"type":"Point","coordinates":[50.6097,41.9538]},"properties":{"name":"Caspian Sea","scalerank":1,"featurecla":"sea"}},
{"type":"Feature","geometry":{"type":"Point","coordinates":[-149.1978,58.108]},"properties":{"name":"Gulf of Alaska","scalerank":1,"featurecla":"gulf"}},
{"type":"Feature","geometry":{"type":"Point","coordinates":[38.7514,19.5792]},"properties":{"name":"Red Sea","scalerank":1,"featurecla":"sea"}},
{"type":"Feature","geometry":{"type":"Point","coordinates":[149.2054,52.8507]},"properties":{"name":"Sea of Okhotsk","scalerank":1,"featurecla":"sea"}},
{"type":"Feature","geometry":{"type":"Point","coordinates":[-53.4727,-75.6603]},"properties":{"name":"Weddell Sea","scalerank":1,"featurecla":"sea"}},
{"type":"Feature","geometry":{"type":"Point","coordinates":[52.8655,25.6827]},"properties":{"name":"Persian Gulf","scalerank":1,"featurecla":"gulf"}},
{"type":"Feature","geometry":{"type":"Point","coordinates":[122.5741,3.5705]},"properties":{"name":"Celebes Sea","scalerank":2,"featurecla":"sea"}},
{"type":"Feature","geometry":{"type":"Point","coordinates":[120.2084,8.3917]},"properties":{"name":"Sulu Sea","scalerank":2,"featurecla":"sea"}},
{"type":"Feature","geometry":{"type":"Point","coordinates":[1.3291,66.8828]},"properties":{"name":"Norwegian Sea","scalerank":2,"featurecla":"sea"}},
{"type":"Feature","geometry":{"type":"Point","coordinates":[-8.5157,76.5584]},"properties":{"name":"Greenland Sea","scalerank":2,"featurecla":"sea"}},
{"type":"Feature","geometry":{"type":"Point","coordinates":[126.2297,-5.6584]},"properties":{"name":"Banda Sea","scalerank":2,"featurecla":"sea"}},
{"type":"Feature","geometry":{"type":"Point","coordinates":[120.8695,22.0727]},"properties":{"name":"Luzon Strait","scalerank":2,"featurecla":"strait"}},
{"type":"Feature","geometry":{"type":"Point","coordinates":[40.414,-20.0303]},"properties":{"name":"Mozambique Channel","scalerank":2,"featurecla":"channel"}},
{"type":"Feature","geometry":{"type":"Point","coordinates":[2.9028,3.294]},"properties":{"name":"Gulf of Guinea","scalerank":2,"featurecla":"gulf"}},
{"type":"Feature","geometry":{"type":"Point","coordinates":[-54.8934,-61.1495]},"properties":{"name":"Scotia Sea","scalerank":2,"featurecla":"sea"}},
{"type":"Feature","geometry":{"type":"Point","coordinates":[19.234,56.0239]},"properties":{"name":"Baltic Sea","scalerank":2,"featurecla":"sea"}},
{"type":"Feature","geometry":{"type":"Point","coordinates":[43.0626,74.6043]},"properties":{"name":"Barents Sea","scalerank":2,"featurecla":"sea"}},
{"type":"Feature","geometry":{"type":"Point","coordinates":[2.6545,56.5015]},"properties":{"name":"North Sea","scalerank":2,"featurecla":"sea"}},
{"type":"Feature","geometry":{"type":"Point","coordinates":[-5.3497,53.5435]},"properties":{"name":"Irish Sea","scalerank":2,"featurecla":"sea"}},
{"type":"Feature","geometry":{"type":"Point","coordinates":[112.5692,-5.1997]},"properties":{"name":"Java Sea","scalerank":2,"featurecla":"sea"}},
{"type":"Feature","geometry":{"type":"Point","coordinates":[95.4924,10.8779]},"properties":{"name":"Andaman Sea","scalerank":2,"featurecla":"sea"}},
{"type":"Feature","geometry":{"type":"Point","coordinates":[123.9556,35.1636]},"properties":{"name":"Yellow Sea","scalerank":2,"featurecla":"sea"}},
{"type":"Feature","geometry":{"type":"Point","coordinates":[125.3699,28.8544]},"properties":{"name":"East China Sea","scalerank":2,"featurecla":"sea"}},
{"type":"Feature","geometry":{"type":"Point","coordinates":[-169.4178,68.6329]},"properties":{"name":"Chukchi Sea","scalerank":2,"featurecla":"sea"}},
{"type":"Feature","geometry":{"type":"Point","coordinates":[135.2781,-9.3474]},"properties":{"name":"Arafura Sea","scalerank":2,"featurecla":"sea"}},
{"type":"Feature","geometry":{"type":"Point","coordinates":[127.7123,-10.9782]},"properties":{"name":"Timor Sea","scalerank":2,"featurecla":"sea"}},
{"type":"Feature","geometry":{"type":"Point","coordinates":[101.8325,9.5452]},"properties":{"name":"Gulf of Thailand","scalerank":2,"featurecla":"gulf"}},
{"type":"Feature","geometry":{"type":"Point","coordinates":[75.234,5.8715]},"properties":{"name":"Laccadive Sea","scalerank":2,"featurecla":"sea"}},
{"type":"Feature","geometry":{"type":"Point","coordinates":[-82.7449,-72.0844]},"properties":{"name":"Bellingshausen Sea","scalerank":2,"featurecla":"sea"}},
{"type":"Feature","geometry":{"type":"Point","coordinates":[-106.3789,-73.9788]},"properties":{"name":"Amundsen Sea","scalerank":2,"featurecla":"sea"}},
{"type":"Feature","geometry":{"type":"Point","coordinates":[-57.8484,64.5491]},"properties":{"name":"Davis Strait","scalerank":2,"featurecla":"strait"}},
{"type":"Feature","geometry":{"type":"Point","coordinates":[73.1031,76.9197]},"properties":{"name":"Kara Sea","scalerank":2,"featurecla":"sea"}},
{"type":"Feature","geometry":{"type":"Point","coordinates":[120.3788,75.9615]},"properties":{"name":"Laptev Sea","scalerank":2,"featurecla":"sea"}},
{"type":"Feature","geometry":{"type":"Point","coordinates":[-68.017,-66.6859]},"properties":{"name":"Drake Passage","scalerank":2,"featurecla":"channel"}},
{"type":"Feature","geometry":{"type":"Point","coordinates":[131.6823,-35.4096]},"properties":{"name":"Great Australian Bight","scalerank":3,"featurecla":"gulf"}},
{"type":"Feature","geometry":{"type":"Point","coordinates":[48.3054,12.6206]},"properties":{"name":"Gulf of Aden","scalerank":3,"featurecla":"gulf"}},
{"type":"Feature","geometry":{"type":"Point","coordinates":[58.7661,24.5404]},"properties":{"name":"Gulf of Oman","scalerank":3,"featurecla":"gulf"}},
{"type":"Feature","geometry":{"type":"Point","coordinates":[12.1438,39.8635]},"properties":{"name":"Tyrrhenian Sea","scalerank":3,"featurecla":"sea"}},
{"type":"Feature","geometry":{"type":"Point","coordinates":[38.8536,65.4179]},"properties":{"name":"White Sea","scalerank":3,"featurecla":"sea"}},
{"type":"Feature","geometry":{"type":"Point","coordinates":[139.2149,-14.3871]},"properties":{"name":"Gulf of Carpentaria","scalerank":3,"featurecla":"gulf"}},
{"type":"Feature","geometry":{"type":"Point","coordinates":[-110.5301,26.3497]},"properties":{"name":"Gulf of California","scalerank":3,"featurecla":"gulf"}},
{"type":"Feature","geometry":{"type":"Point","coordinates":[-73.2239,63.3002]},"properties":{"name":"Hudson Strait","scalerank":3,"featurecla":"strait"}},
{"type":"Feature","geometry":{"type":"Point","coordinates":[-2.8936,49.7065]},"properties":{"name":"English Channel","scalerank":3,"featurecla":"channel"}},
{"type":"Feature","geometry":{"type":"Point","coordinates":[-88.0014,16.3005]},"properties":{"name":"Gulf of Honduras","scalerank":3,"featurecla":"gulf"}},
{"type":"Feature","geometry":{"type":"Point","coordinates":[19.7629,61.9043]},"properties":{"name":"Gulf of Bothnia","scalerank":3,"featurecla":"gulf"}},
{"type":"Feature","geometry":{"type":"Point","coordinates":[15.3271,42.8101]},"properties":{"name":"Adriatic Sea","scalerank":3,"featurecla":"sea"}},
{"type":"Feature","geometry":{"type":"Point","coordinates":[-171.5121,56.3493]},"properties":{"name":"Bering Sea","scalerank":2,"featurecla":"sea"}},
{"type":"Feature","geometry":{"type":"Point","coordinates":[-59.7162,27.6461]},"properties":{"name":"Sargasso Sea","scalerank":2,"featurecla":"sea"}},
{"type":"Feature","geometry":{"type":"Point","coordinates":[17.9813,34.3409]},"properties":{"name":"Mediterranean Sea","scalerank":1,"featurecla":"sea"}},
{"type":"Feature","geometry":{"type":"Point","coordinates":[-169.9603,-77.4926]},"properties":{"name":"Ross Sea","scalerank":1,"featurecla":"sea"}},
{"type":"Feature","geometry":{"type":"Point","coordinates":[157.1258,-18.886]},"properties":{"name":"Coral Sea","scalerank":1,"featurecla":"sea"}},
{"type":"Feature","geometry":{"type":"Point","coordinates":[136.4217,40.611]},"properties":{"name":"Sea of Japan","scalerank":1,"featurecla":"sea"}}
]}